$$SOE
2460721.500000000, A.D. 2025-Feb-15 00:00:00.0000, -4.518442128382140E+08, -1.136806584062089E+08, 3.059618870577127E+06,
2460728.500000000, A.D. 2025-Feb-22 00:00:00.0000, -4.485554876281279E+08, -1.230282550400455E+08, 4.769564960714288E+06,
2460735.500000000, A.D. 2025-Mar-01 00:00:00.0000, -4.450503856935620E+08, -1.323165583091383E+08, 6.477209713709578E+06,
2460742.500000000, A.D. 2025-Mar-08 00:00:00.0000, -4.413294871278046E+08, -1.415407581880394E+08, 8.181712935521007E+06,
2460749.500000000, A.D. 2025-Mar-15 00:00:00.0000, -4.373934754147313E+08, -1.506960221285171E+08, 9.882227128901958E+06,
2460756.500000000, A.D. 2025-Mar-22 00:00:00.0000, -4.332431416323416E+08, -1.597774964306439E+08, 1.157789797049128E+07,
2460763.500000000, A.D. 2025-Mar-29 00:00:00.0000, -4.288793872938397E+08, -1.687803099687060E+08, 1.326786449612371E+07,
2460770.500000000, A.D. 2025-Apr-05 00:00:00.0000, -4.243032254970330E+08, -1.776995771338167E+08, 1.495125922168145E+07,
2460777.500000000, A.D. 2025-Apr-12 00:00:00.0000, -4.195157823005735E+08, -1.865303998894743E+08, 1.662720838508502E+07,
2460784.500000000, A.D. 2025-Apr-19 00:00:00.0000, -4.145182985060711E+08, -1.952678698237911E+08, 1.829483225463732E+07,
2460791.500000000, A.D. 2025-Apr-26 00:00:00.0000, -4.093121315677960E+08, -2.039070704056330E+08, 1.995324546214110E+07,
2460798.500000000, A.D. 2025-May-03 00:00:00.0000, -4.038987575116014E+08, -2.124430794301449E+08, 2.160155735200529E+07,
2460805.500000000, A.D. 2025-May-10 00:00:00.0000, -3.982797728309683E+08, -2.208709716490605E+08, 2.323887234474853E+07,
2460812.500000000, A.D. 2025-May-17 00:00:00.0000, -3.924568963201742E+08, -2.291858216298488E+08, 2.486429030872522E+07,
2460819.500000000, A.D. 2025-May-24 00:00:00.0000, -3.864319706668285E+08, -2.373827069001558E+08, 2.647690692035674E+07,
2460826.500000000, A.D. 2025-May-31 00:00:00.0000, -3.802069633811628E+08, -2.454567110677531E+08, 2.807581400068543E+07,
2460833.500000000, A.D. 2025-Jun-07 00:00:00.0000, -3.737839674568737E+08, -2.534029257118002E+08, 2.966009996413228E+07,
2460840.500000000, A.D. 2025-Jun-14 00:00:00.0000, -3.671652041207567E+08, -2.612164517129798E+08, 3.122885054231125E+07,
2460847.500000000, A.D. 2025-Jun-21 00:00:00.0000, -3.603530264474382E+08, -2.688924032955788E+08, 3.278114940440309E+07,
2460854.500000000, A.D. 2025-Jun-28 00:00:00.0000, -3.533499207051010E+08, -2.764259130182063E+08, 3.431607853203553E+07,
2460861.500000000, A.D. 2025-Jul-05 00:00:00.0000, -3.461585069418841E+08, -2.838121355562540E+08, 3.583271866463365E+07,
2460868.500000000, A.D. 2025-Jul-12 00:00:00.0000, -3.387815399952574E+08, -2.910462510804031E+08, 3.733014985898560E+07,
2460875.500000000, A.D. 2025-Jul-19 00:00:00.0000, -3.312219107256553E+08, -2.981234688058401E+08, 3.880745209876443E+07,
2460882.500000000, A.D. 2025-Jul-26 00:00:00.0000, -3.234826472558611E+08, -3.050390307688320E+08, 4.026370593029590E+07,
2460889.500000000, A.D. 2025-Aug-02 00:00:00.0000, -3.155669161427232E+08, -3.117882158086674E+08, 4.169799312064381E+07,
2460896.500000000, A.D. 2025-Aug-09 00:00:00.0000, -3.074780234496820E+08, -3.183663437683076E+08, 4.310939733500262E+07,
2460903.500000000, A.D. 2025-Aug-16 00:00:00.0000, -2.992194156346433E+08, -3.247687799748943E+08, 4.449700482143562E+07,
2460910.500000000, A.D. 2025-Aug-23 00:00:00.0000, -2.907946799517337E+08, -3.309909399809986E+08, 4.585990507765046E+07,
2460917.500000000, A.D. 2025-Aug-30 00:00:00.0000, -2.822075440289474E+08, -3.370282938493012E+08, 4.719719152808328E+07,
2460924.500000000, A.D. 2025-Sep-06 00:00:00.0000, -2.734618760302254E+08, -3.428763689762678E+08, 4.850796242299780E+07,
2460931.500000000, A.D. 2025-Sep-13 00:00:00.0000, -2.645616870625202E+08, -3.485307539333607E+08, 4.979132190958858E+07,
2460938.500000000, A.D. 2025-Sep-20 00:00:00.0000, -2.555111325452084E+08, -3.539871049667661E+08, 5.104638084028935E+07,
2460945.500000000, A.D. 2025-Sep-27 00:00:00.0000, -2.463145114750727E+08, -3.592411520398610E+08, 5.227225747548911E+07,
2460952.500000000, A.D. 2025-Oct-04 00:00:00.0000, -2.369762655948915E+08, -3.642887038728411E+08, 5.346807830939324E+07,
2460959.500000000, A.D. 2025-Oct-11 00:00:00.0000, -2.275009788298117E+08, -3.691256529148951E+08, 5.463297897545700E+07,
2460966.500000000, A.D. 2025-Oct-18 00:00:00.0000, -2.178933766979563E+08, -3.737479805153968E+08, 5.576610518182148E+07,
2460973.500000000, A.D. 2025-Oct-25 00:00:00.0000, -2.081583255460441E+08, -3.781517622752808E+08, 5.686661366361770E+07,
2460980.500000000, A.D. 2025-Nov-01 00:00:00.0000, -1.983008315616686E+08, -3.823331735551581E+08, 5.793367314862701E+07,
2460987.500000000, A.D. 2025-Nov-08 00:00:00.0000, -1.883260395195300E+08, -3.862884951628755E+08, 5.896646532941377E+07,
2460994.500000000, A.D. 2025-Nov-15 00:00:00.0000, -1.782392311060774E+08, -3.900141192693968E+08, 5.996418582231008E+07,
2461001.500000000, A.D. 2025-Nov-22 00:00:00.0000, -1.680458224126575E+08, -3.935065553223743E+08, 6.092604509290160E+07,
2461008.500000000, A.D. 2025-Nov-29 00:00:00.0000, -1.577513607438172E+08, -3.967624348107246E+08, 6.185126945324482E+07,
2461015.500000000, A.D. 2025-Dec-06 00:00:00.0000, -1.473615230119385E+08, -3.997785150026742E+08, 6.273910232657427E+07,
2461022.500000000, A.D. 2025-Dec-13 00:00:00.0000, -1.368821152781737E+08, -4.025516850129085E+08, 6.358880546181571E+07,
2461029.500000000, A.D. 2025-Dec-20 00:00:00.0000, -1.263190699407219E+08, -4.050789731609914E+08, 6.439965985859025E+07,
2461036.500000000, A.D. 2025-Dec-27 00:00:00.0000, -1.156784416388967E+08, -4.073575530139795E+08, 6.517096671021099E+07,
2461043.500000000, A.D. 2026-Jan-03 00:00:00.0000, -1.049664033264194E+08, -4.093847487122191E+08, 6.590204844515540E+07,
2461050.500000000, A.D. 2026-Jan-10 00:00:00.0000, -9.418924239885342E+07, -4.111580402414251E+08, 6.659224979865332E+07,
2461057.500000000, A.D. 2026-Jan-17 00:00:00.0000, -8.335335663903376E+07, -4.126750687275467E+08, 6.724093888323425E+07,
2461064.500000000, A.D. 2026-Jan-24 00:00:00.0000, -7.246524990096889E+07, -4.139336417164955E+08, 6.784750825084649E+07,
2461071.500000000, A.D. 2026-Jan-31 00:00:00.0000, -6.153152750886505E+07, -4.149317384300830E+08, 6.841137594171719E+07,
2461078.500000000, A.D. 2026-Feb-07 00:00:00.0000, -5.055889131119028E+07, -4.156675150383595E+08, 6.893198650737192E+07,
2461085.500000000, A.D. 2026-Feb-14 00:00:00.0000, -3.955413413913021E+07, -4.161393099454565E+08, 6.940881198075970E+07,
2461092.500000000, A.D. 2026-Feb-21 00:00:00.0000, -2.852413328510526E+07, -4.163456484930611E+08, 6.984135280215779E+07,
2461099.500000000, A.D. 2026-Feb-28 00:00:00.0000, -1.747584409037683E+07, -4.162852459086669E+08, 7.022913889133398E+07,
2461106.500000000, A.D. 2026-Mar-07 00:00:00.0000, -6.416295705112064E+06, -4.159570104285245E+08, 7.057173089164682E+07,
2461113.500000000, A.D. 2026-Mar-14 00:00:00.0000, 4.647413749675295E+06, -4.153600489089190E+08, 7.086872113713908E+07,
2461120.500000000, A.D. 2026-Mar-21 00:00:00.0000, 1.570812439448037E+07, -4.144936720107952E+08, 7.111973441290818E+07,
2461127.500000000, A.D. 2026-Mar-28 00:00:00.0000, 2.675862215962978E+07, -4.133573979123204E+08, 7.132442877428183E+07,
2461134.500000000, A.D. 2026-Apr-04 00:00:00.0000, 3.779164609541062E+07, -4.119509554977645E+08, 7.148249639821221E+07,
2461141.500000000, A.D. 2026-Apr-11 00:00:00.0000, 4.879989568621293E+07, -4.102742873654715E+08, 7.159366440920556E+07,
2461148.500000000, A.D. 2026-Apr-18 00:00:00.0000, 5.977603831504744E+07, -4.083275526446784E+08, 7.165769566137902E+07,
2461155.500000000, A.D. 2026-Apr-25 00:00:00.0000, 7.071271691046859E+07, -4.061111295898985E+08, 7.167438947028662E+07,
2461162.500000000, A.D. 2026-May-02 00:00:00.0000, 8.160255779218374E+07, -4.036256179668551E+08, 7.164358228607000E+07,
2461169.500000000, A.D. 2026-May-09 00:00:00.0000, 9.243817882458586E+07, -4.008718412821497E+08, 7.156514828835759E+07,
2461176.500000000, A.D. 2026-May-16 00:00:00.0000, 1.032121982392184E+08, -3.978508487058800E+08, 7.143899987723342E+07,
2461183.500000000, A.D. 2026-May-23 00:00:00.0000, 1.139172441592207E+08, -3.945639156534526E+08, 7.126508813683575E+07,
2461190.500000000, A.D. 2026-May-30 00:00:00.0000, 1.245459627268139E+08, -3.910125426958506E+08, 7.104340348574971E+07,
2461197.500000000, A.D. 2026-Jun-06 00:00:00.0000, 1.350910244952961E+08, -3.871984560604517E+08, 7.077397627267689E+07,
2461204.500000000, A.D. 2026-Jun-13 00:00:00.0000, 1.455451327306204E+08, -3.831236095138664E+08, 7.045687699470276E+07,
2461211.500000000, A.D. 2026-Jun-20 00:00:00.0000, 1.559010330998591E+08, -3.787901846943170E+08, 7.009221642141803E+07,
2461218.500000000, A.D. 2026-Jun-27 00:00:00.0000, 1.661515230249252E+08, -3.742005902285799E+08, 6.968014575122289E+07,
2461225.500000000, A.D. 2026-Jul-04 00:00:00.0000, 1.762894606771675E+08, -3.693574604044020E+08, 6.922085673474087E+07,
2461232.500000000, A.D. 2026-Jul-11 00:00:00.0000, 1.863077738418688E+08, -3.642636535275409E+08, 6.871458172956854E+07,
2461239.500000000, A.D. 2026-Jul-18 00:00:00.0000, 1.961994687199005E+08, -3.589222499361838E+08, 6.816159367830601E+07,
2461246.500000000, A.D. 2026-Jul-25 00:00:00.0000, 2.059576386652941E+08, -3.533365496694874E+08, 6.756220600620279E+07,
2461253.500000000, A.D. 2026-Aug-01 00:00:00.0000, 2.155754728817712E+08, -3.475100698388904E+08, 6.691677242865463E+07,
2461260.500000000, A.D. 2026-Aug-08 00:00:00.0000, 2.250462652694270E+08, -3.414465417407344E+08, 6.622568664535898E+07,
2461267.500000000, A.D. 2026-Aug-15 00:00:00.0000, 2.343634238138064E+08, -3.351499072659561E+08, 6.548938192060748E+07,
2461274.500000000, A.D. 2026-Aug-22 00:00:00.0000, 2.435204797327904E+08, -3.286243133950692E+08, 6.470833072081731E+07,
2461281.500000000, A.D. 2026-Aug-29 00:00:00.0000, 2.525110940666999E+08, -3.218741061615694E+08, 6.388304450802089E+07,
2461288.500000000, A.D. 2026-Sep-05 00:00:00.0000, 2.613290638191153E+08, -3.149038269609134E+08, 6.301407325914632E+07,
$$EOE